     2              NAVIGATION DATA                         RINEX VERSION / TYPE
CCRINEXN V1.6.0 UX  CDDIS               10-AUG-16 15:33     PGM / RUN BY / DATE 
IGS BROADCAST EPHEMERIS FILE                                COMMENT             
    0.8382D-08  0.2235D-07 -0.5960D-07 -0.1192D-06          ION ALPHA           
    0.9216D+05  0.1147D+06 -0.6554D+05 -0.5898D+06          ION BETA            
    0.279396772385D-08 0.621724893790D-14   319488     1909 DELTA-UTC: A0,A1,T,W
    17                                                      LEAP SECONDS        
                                                            END OF HEADER       
32 16  8  9 12  0  0.0-0.738240778446D-04-0.121644916362D-10 0.000000000000D+00
    0.320000000000D+02 0.515625000000D+02 0.448518682603D-08 0.802329879231D+00
    0.248290598392D-05 0.631369301118D-03 0.900402665138D-05 0.515363734436D+04
    0.216000000000D+06-0.260770320892D-07-0.145488036993D+01-0.745058059692D-08
    0.958910931289D+00 0.202625000000D+03-0.228002010296D+01-0.803104881113D-08
    0.215723271454D-09 0.000000000000D+00 0.190900000000D+04 0.000000000000D+00
    0.200000000000D+01 0.000000000000D+00 0.931322574616D-09 0.320000000000D+02
    0.210990000000D+06 0.400000000000D+01 0.000000000000D+00 0.000000000000D+00
 4 16  8  9 13 59 44.0-0.259925145656D-03-0.341060513165D-12 0.000000000000D+00
    0.600000000000D+01-0.366250000000D+02 0.533879381076D-08 0.262481428637D+01
   -0.190176069736D-05 0.846005824860D-02 0.819377601147D-05 0.515366787338D+04
    0.223184000000D+06 0.186264514923D-08 0.669174970326D+00-0.130385160446D-06
    0.983286812563D+00 0.233906250000D+03 0.903652411950D+00-0.772460747519D-08
   -0.133576992589D-09 0.100000000000D+01 0.190900000000D+04 0.000000000000D+00
    0.240000000000D+01 0.630000000000D+02-0.195577740669D-07 0.600000000000D+01
    0.222576000000D+06 0.400000000000D+01 0.000000000000D+00 0.000000000000D+00
 9 16  8  9 13 59 44.0 0.183552037924D-03 0.727595761418D-11 0.000000000000D+00
    0.100000000000D+01 0.465625000000D+02 0.452018828399D-08 0.138432083198D+01
    0.250525772572D-05 0.499139423482D-03 0.857561826706D-05 0.515380956078D+04
    0.223184000000D+06 0.596046447754D-07-0.145670633161D+01-0.186264514923D-08
    0.954336984789D+00 0.210625000000D+03 0.214985300528D+01-0.805712132573D-08
    0.221437795202D-09 0.100000000000D+01 0.190900000000D+04 0.000000000000D+00
    0.200000000000D+01 0.000000000000D+00 0.139698386192D-08 0.100000000000D+01
    0.222720000000D+06 0.400000000000D+01 0.000000000000D+00 0.000000000000D+00
15 16  8  9 13 59 44.0-0.322749372572D-03-0.147792889038D-11 0.000000000000D+00
    0.800000000000D+01 0.544687500000D+02 0.510021244432D-08 0.759788849078D+00
    0.292062759399D-05 0.829715142027D-02 0.832043588162D-05 0.515364568520D+04
    0.223184000000D+06-0.782310962677D-07-0.151111549388D+01 0.184401869774D-06
    0.930045721623D+00 0.202750000000D+03 0.488711777699D+00-0.839427822681D-08
    0.867893294097D-10 0.000000000000D+00 0.190900000000D+04 0.000000000000D+00
    0.200000000000D+01 0.000000000000D+00-0.107102096081D-07 0.800000000000D+01
    0.222810000000D+06 0.400000000000D+01 0.000000000000D+00 0.000000000000D+00
18 16  8  9 13 59 44.0 0.545518007129D-03 0.397903932026D-11 0.000000000000D+00
    0.500000000000D+01-0.287500000000D+02 0.501735184999D-08 0.307296259634D+01
   -0.144168734551D-05 0.172627795255D-01 0.900588929653D-05 0.515370882988D+04
    0.223184000000D+06 0.193715095520D-06-0.253125560619D+01-0.121071934700D-06
    0.925273590685D+00 0.182000000000D+03-0.186522532310D+01-0.798497546342D-08
   -0.213937482783D-09 0.000000000000D+00 0.190900000000D+04 0.000000000000D+00
    0.200000000000D+01 0.000000000000D+00-0.111758708954D-07 0.500000000000D+01
    0.216000000000D+06 0.400000000000D+01 0.000000000000D+00 0.000000000000D+00
21 16  8  9 13 59 44.0-0.530113931745D-03-0.682121026330D-12 0.000000000000D+00
    0.100000000000D+01-0.227812500000D+02 0.507521140293D-08-0.227108710385D+01
   -0.113062560558D-05 0.233704145066D-01 0.522285699844D-05 0.515356841278D+04
    0.223184000000D+06 0.307336449623D-06 0.271062036678D+01 0.000000000000D+00
    0.937270605883D+00 0.260968750000D+03-0.176970158992D+01-0.803604901941D-08
    0.621454457501D-10 0.000000000000D+00 0.190900000000D+04 0.000000000000D+00
    0.200000000000D+01 0.000000000000D+00-0.977888703346D-08 0.100000000000D+01
    0.222180000000D+06 0.400000000000D+01 0.000000000000D+00 0.000000000000D+00
 1 16  8  9 14  0  0.0 0.297892838717D-04 0.136424205266D-11 0.000000000000D+00
    0.440000000000D+02-0.212187500000D+02 0.465983695806D-08-0.591201313816D+00
   -0.123493373394D-05 0.578633113764D-02 0.581517815590D-05 0.515363497925D+04
    0.223200000000D+06 0.726431608200D-07 0.274629542646D+01 0.819563865662D-07
    0.965246245786D+00 0.269062500000D+03 0.517280902986D+00-0.821927093705D-08
   -0.111076055335D-09 0.100000000000D+01 0.190900000000D+04 0.000000000000D+00
    0.200000000000D+01 0.000000000000D+00 0.512227416039D-08 0.440000000000D+02
    0.221160000000D+06 0.400000000000D+01 0.000000000000D+00 0.000000000000D+00
 2 16  8  9 14  0  0.0 0.567204784602D-03-0.432009983342D-11 0.000000000000D+00
    0.780000000000D+02-0.207187500000D+02 0.529379207137D-08-0.174711605851D+00
   -0.987201929092D-06 0.158586002653D-01 0.548362731934D-05 0.515360855103D+04
    0.223200000000D+06-0.409781932831D-07 0.269918946723D+01 0.214204192162D-06
    0.944021636348D+00 0.267562500000D+03-0.209545838295D+01-0.877679440237D-08
   -0.760745980100D-10 0.100000000000D+01 0.190900000000D+04 0.000000000000D+00
    0.200000000000D+01 0.000000000000D+00-0.204890966415D-07 0.780000000000D+02
    0.216000000000D+06 0.000000000000D+00 0.000000000000D+00 0.000000000000D+00
 3 16  8  9 14  0  0.0-0.793752260506D-04-0.272848410532D-11 0.000000000000D+00
    0.500000000000D+02-0.330625000000D+02 0.438161108312D-08-0.445542516394D+00
   -0.160746276379D-05 0.152260530740D-03 0.914931297302D-05 0.515364729691D+04
    0.223200000000D+06-0.838190317154D-07-0.249564618033D+01-0.124797224999D-06
    0.959533189346D+00 0.204968750000D+03-0.772492690701D+00-0.789890044948D-08
   -0.248938940735D-09 0.100000000000D+01 0.190900000000D+04 0.000000000000D+00
    0.200000000000D+01 0.000000000000D+00 0.139698386192D-08 0.500000000000D+02
    0.216018000000D+06 0.400000000000D+01 0.000000000000D+00 0.000000000000D+00
 4 16  8  9 14  0  0.0-0.259927473962D-03-0.341060513165D-12 0.000000000000D+00
    0.119000000000D+03-0.366250000000D+02 0.533879381076D-08 0.262714763632D+01
   -0.190176069737D-05 0.846005603671D-02 0.819191336632D-05 0.515366788292D+04
    0.223200000000D+06 0.186264514923D-08 0.669174834275D+00-0.130385160446D-06
    0.983286825729D+00 0.233906250000D+03 0.903652736718D+00-0.772460747519D-08
   -0.133576992589D-09 0.100000000000D+01 0.190900000000D+04 0.000000000000D+00
    0.400000000000D+01 0.630000000000D+02-0.195577740669D-07 0.119000000000D+03
    0.216000000000D+06 0.400000000000D+01 0.000000000000D+00 0.000000000000D+00
 5 16  8  9 14  0  0.0-0.993483699858D-04 0.272848410532D-11 0.000000000000D+00
    0.700000000000D+02-0.243437500000D+02 0.473626871317D-08 0.231638475881D+01
   -0.135414302349D-05 0.465520087164D-02 0.932440161705D-05 0.515357510185D+04
    0.223200000000D+06-0.428408384323D-07-0.250854347678D+01-0.931322574616D-08
    0.946585754308D+00 0.194968750000D+03 0.473361024267D+00-0.809498004555D-08
   -0.210365905442D-09 0.100000000000D+01 0.190900000000D+04 0.000000000000D+00
    0.200000000000D+01 0.000000000000D+00-0.107102096081D-07 0.700000000000D+02
    0.216000000000D+06 0.400000000000D+01 0.000000000000D+00 0.000000000000D+00
 6 16  8  9 14  0  0.0 0.230237375945D-03 0.522959453519D-11 0.000000000000D+00
    0.370000000000D+02-0.255937500000D+02 0.463090721325D-08-0.340614648402D+00
   -0.126473605633D-05 0.271807541139D-03 0.578723847866D-05 0.515374146080D+04
    0.223200000000D+06 0.186264514923D-07 0.273787995071D+01 0.149011611938D-07
    0.965059426759D+00 0.271500000000D+03-0.133883284552D+01-0.818569834138D-08
   -0.850035389299D-10 0.100000000000D+01 0.190900000000D+04 0.000000000000D+00
    0.200000000000D+01 0.000000000000D+00 0.419095158577D-08 0.370000000000D+02
    0.216000000000D+06 0.000000000000D+00 0.000000000000D+00 0.000000000000D+00
 7 16  8  9 14  0  0.0 0.436079222709D-03-0.272848410532D-11 0.000000000000D+00
    0.840000000000D+02 0.180000000000D+02 0.457626204825D-08-0.129122815558D+01
    0.884756445885D-06 0.988335185684D-02 0.458769500256D-05 0.515363288689D+04
    0.223200000000D+06 0.165775418282D-06-0.378261316422D+00-0.577419996262D-07
    0.965693451066D+00 0.287781250000D+03-0.264907961054D+01-0.816748306560D-08
    0.128933942045D-09 0.100000000000D+01 0.190900000000D+04 0.000000000000D+00
    0.200000000000D+01 0.000000000000D+00-0.111758708954D-07 0.840000000000D+02
    0.216000000000D+06 0.400000000000D+01 0.000000000000D+00 0.000000000000D+00
 8 16  8  9 14  0  0.0-0.459542497992D-04-0.147792889038D-11 0.000000000000D+00
    0.400000000000D+02-0.906250000000D+00 0.460340603605D-08 0.234769843984D+01
    0.171363353729D-06 0.168073375244D-02 0.766478478909D-05 0.515373143387D+04
    0.223200000000D+06 0.130385160446D-06 0.168503734779D+01-0.577419996262D-07
    0.963767572079D+00 0.230062500000D+03-0.103286889815D+01-0.810212320024D-08
    0.126433837905D-09 0.100000000000D+01 0.190900000000D+04 0.000000000000D+00
    0.200000000000D+01 0.000000000000D+00 0.512227416039D-08 0.400000000000D+02
    0.216000000000D+06 0.400000000000D+01 0.000000000000D+00 0.000000000000D+00
